NORAD_CAT_ID,OBJECT_NAME,OBJECT_TYPE,EPOCH,MEAN_MOTION,ECCENTRICITY,INCLINATION,RA_OF_ASC_NODE,ARG_OF_PERICENTER,MEAN_ANOMALY,BSTAR,MEAN_MOTION_DOT,MEAN_MOTION_DDOT,TLE_LINE0,TLE_LINE1,TLE_LINE2,SEMIMAJOR_AXIS,PERIOD,APOGEE,PERIGEE,DECAYED
56804.0,STARLINK-6069,PAYLOAD,2024-05-14 05:12:18,14.98290775,0.0003072,69.9992,199.7566,273.9147,86.1661,0.00079853,9.438e-05,0.0,0 STARLINK-6069,1 56804U 23078AP  24135.21688641  .00009438  00000-0  79853-3 0  9993,2 56804  69.9992 199.7566 0003072 273.9147  86.1661 14.98290775 53904,6950.314,96.11,574.314,570.044,0.0
56804.0,STARLINK-6069,PAYLOAD,2024-05-14 11:36:51,14.98303475,0.000359,69.9987,199.0806,294.6341,65.4444,0.00070195,8.287e-05,0.0,0 STARLINK-6069,1 56804U 23078AP  24135.48392807  .00008287  00000-0  70195-3 0  9999,2 56804  69.9987 199.0806 0003590 294.6341  65.4444 14.98303475 54350,6950.275,96.109,574.635,569.645,0.0
56804.0,STARLINK-6069,PAYLOAD,2024-05-14 21:13:39,14.98316191,0.0003218,69.9989,198.0718,279.0135,81.0659,0.00071865,8.489e-05,0.0,0 STARLINK-6069,1 56804U 23078AP  24135.88448365  .00008489  00000-0  71865-3 0  9993,2 56804  69.9989 198.0718 0003218 279.0135  81.0659 14.98316191 54416,6950.236,96.108,574.337,569.864,0.0
56804.0,STARLINK-6069,PAYLOAD,2024-05-15 05:14:16,14.98384941,0.0002699,69.9995,197.2305,268.1196,91.9654,0.00069084,8.171e-05,0.0,0 STARLINK-6069,1 56804U 23078AP  24136.21824128  .00008171  00000-0  69084-3 0  9994,2 56804  69.9995 197.2305 0002699 268.1196  91.9654 14.98384941 54057,6950.023,96.103,573.764,570.012,0.0
56804.0,STARLINK-6069,PAYLOAD,2024-05-15 13:14:55,14.98386759,0.0002893,69.9997,196.3896,273.2926,86.7902,0.00066323,7.841e-05,0.0,0 STARLINK-6069,1 56804U 23078AP  24136.55203011  .00007841  00000-0  66323-3 0  9999,2 56804  69.9997 196.3896 0002893 273.2926  86.7902 14.98386759 54516,6950.017,96.103,573.893,569.872,0.0
56804.0,STARLINK-6069,PAYLOAD,2024-05-15 21:15:36,14.98372282,0.0003397,69.9988,195.5453,277.3801,82.6972,0.00030945,3.605e-05,0.0,0 STARLINK-6069,1 56804U 23078AP  24136.88583783  .00003605  00000-0  30945-3 0  9997,2 56804  69.9988 195.5453 0003397 277.3801  82.6972 14.98372282 54566,6950.062,96.104,574.288,569.566,0.0
56804.0,STARLINK-6069,PAYLOAD,2024-05-16 05:16:19,14.98340273,0.0002994,69.9993,194.7064,271.5559,88.5257,-0.0001645,-2.056e-05,0.0,0 STARLINK-6069,1 56804U 23078AP  24137.21966560 -.00002056  00000-0 -16450-3 0  9999,2 56804  69.9993 194.7064 0002994 271.5559  88.5257 14.98340273 54206,6950.161,96.106,574.107,569.945,0.0
56804.0,STARLINK-6069,PAYLOAD,2024-05-16 13:16:58,14.98347427,0.0002978,69.9992,193.8657,270.1873,89.8945,-0.00014233,-1.792e-05,0.0,0 STARLINK-6069,1 56804U 23078AP  24137.55345596 -.00001792  00000-0 -14233-3 0  9999,2 56804  69.9992 193.8657 0002978 270.1873  89.8945 14.98347427 54665,6950.139,96.106,574.074,569.934,0.0
56804.0,STARLINK-6069,PAYLOAD,2024-05-16 21:17:38,14.98346469,0.0003052,69.9995,193.0213,272.9346,87.1463,-0.00019258,-2.391e-05,0.0,0 STARLINK-6069,1 56804U 23078AP  24137.88725287 -.00002391  00000-0 -19258-3 0  9992,2 56804  69.9995 193.0213 0003052 272.9346  87.1463 14.98346469 54714,6950.142,96.106,574.128,569.886,0.0
56804.0,STARLINK-6069,PAYLOAD,2024-05-17 11:42:50,14.98359583,0.0002973,69.9995,191.5079,270.803,89.2788,-0.00056547,-6.839e-05,0.0,0 STARLINK-6069,1 56804U 23078AP  24138.48808773 -.00006839  00000-0 -56547-3 0  9994,2 56804  69.9995 191.5079 0002973 270.8030  89.2788 14.98359583 54809,6950.101,96.105,574.033,569.9,0.0
56804.0,STARLINK-6069,PAYLOAD,2024-05-17 21:19:38,14.9835505,0.0002928,69.9998,190.4974,272.8819,87.2005,-0.0005367,-6.495e-05,0.0,0 STARLINK-6069,1 56804U 23078AP  24138.88864361 -.00006495  00000-0 -53670-3 0  9995,2 56804  69.9998 190.4974 0002928 272.8819  87.2005 14.98355050 54862,6950.115,96.105,574.015,569.945,0.0
56804.0,STARLINK-6069,PAYLOAD,2024-05-18 05:20:19,14.98324137,0.0002886,69.9992,189.6559,270.5135,89.5693,1.2074e-05,5.1e-07,0.0,0 STARLINK-6069,1 56804U 23078AP  24139.22244705  .00000051  00000-0  12074-4 0  9992,2 56804  69.9992 189.6559 0002886 270.5135  89.5693 14.98324137 54505,6950.211,96.107,574.082,570.07,0.0
56804.0,STARLINK-6069,PAYLOAD,2024-05-18 13:20:59,14.98333064,0.0003026,69.9989,188.816,271.2489,88.8323,3.0608e-05,2.72e-06,0.0,0 STARLINK-6069,1 56804U 23078AP  24139.55624123  .00000272  00000-0  30608-4 0  9992,2 56804  69.9989 188.8160 0003026 271.2489  88.8323 14.98333064 54968,6950.183,96.107,574.152,569.945,0.0
56804.0,STARLINK-6069,PAYLOAD,2024-05-19 03:46:13,14.98318054,0.0002681,70.001,187.3006,277.0914,82.994,-2.9563e-05,-4.46e-06,0.0,0 STARLINK-6069,1 56804U 23078AP  24140.15709571 -.00000446  00000-0 -29563-4 0  9994,2 56804  70.0010 187.3006 0002681 277.0914  82.9940 14.98318054 54649,6950.23,96.108,573.958,570.231,0.0
56804.0,STARLINK-6069,PAYLOAD,2024-05-19 13:23:01,14.98313984,0.0002473,70.0,186.2904,270.0922,89.9953,-3.0106e-05,-4.52e-06,0.0,0 STARLINK-6069,1 56804U 23078AP  24140.55766174 -.00000452  00000-0 -30106-4 0  9992,2 56804  70.0000 186.2904 0002473 270.0922  89.9953 14.98313984 55115,6950.242,96.108,573.826,570.389,0.0
56804.0,STARLINK-6069,PAYLOAD,2024-05-20 03:48:13,14.98329202,0.0003191,69.9985,184.7761,275.6641,84.4154,7.5915e-05,8.13e-06,0.0,0 STARLINK-6069,1 56804U 23078AP  24141.15849003  .00000813  00000-0  75915-4 0  9998,2 56804  69.9985 184.7761 0003191 275.6641  84.4154 14.98329202 54791,6950.195,96.107,574.278,569.843,0.0
56804.0,STARLINK-6069,PAYLOAD,2024-05-20 13:25:01,14.98335148,0.0002847,69.9995,183.7657,276.9254,83.1581,0.00014159,1.597e-05,0.0,0 STARLINK-6069,1 56804U 23078AP  24141.55904445  .00001597  00000-0  14159-3 0  9996,2 56804  69.9995 183.7657 0002847 276.9254  83.1581 14.98335148 55265,6950.177,96.107,574.021,570.063,0.0
56804.0,STARLINK-6069,PAYLOAD,2024-05-21 03:50:14,14.98321658,0.000249,70.0001,182.2521,259.685,100.4029,8.3078e-05,8.98e-06,0.0,0 STARLINK-6069,1 56804U 23078AP  24142.15989370  .00000898  00000-0  83078-4 0  9993,2 56804  70.0001 182.2521 0002490 259.6850 100.4029 14.98321658 54949,6950.219,96.108,573.814,570.353,0.0
56804.0,STARLINK-6069,PAYLOAD,2024-05-21 11:50:55,14.98319547,0.0002738,69.9997,181.4102,268.3281,91.7565,5.3048e-05,5.4e-06,0.0,0 STARLINK-6069,1 56804U 23078AP  24142.49369770  .00000540  00000-0  53048-4 0  9994,2 56804  69.9997 181.4102 0002738 268.3281  91.7565 14.98319547 55409,6950.225,96.108,573.993,570.187,0.0
56804.0,STARLINK-6069,PAYLOAD,2024-05-22 03:52:14,14.9835161,0.0002926,69.9998,179.7273,271.4556,88.6268,0.00014791,1.673e-05,0.0,0 STARLINK-6069,1 56804U 23078AP  24143.16127577  .00001673  00000-0  14791-3 0  9995,2 56804  69.9998 179.7273 0002926 271.4556  88.6268 14.98351610 55095,6950.126,96.106,574.025,569.957,0.0
56804.0,STARLINK-6069,PAYLOAD,2024-05-22 11:52:54,14.98353027,0.0002762,69.9997,178.8857,269.1627,90.9215,0.00015117,1.712e-05,0.0,0 STARLINK-6069,1 56804U 23078AP  24143.49507027  .00001712  00000-0  15117-3 0  9990,2 56804  69.9997 178.8857 0002762 269.1627  90.9215 14.98353027 55556,6950.122,96.106,573.906,570.067,0.0
56804.0,STARLINK-6069,PAYLOAD,2024-05-23 05:30:24,14.98321616,0.0003307,69.9987,177.0341,272.1428,87.9352,-4.8565e-05,-6.72e-06,0.0,0 STARLINK-6069,1 56804U 23078AP  24144.22945240 -.00000672  00000-0 -48565-4 0  9995,2 56804  69.9987 177.0341 0003307 272.1428  87.9352 14.98321616 55257,6950.219,96.108,574.382,569.785,0.0
56804.0,STARLINK-6069,PAYLOAD,2024-05-23 11:54:57,14.98320976,0.0003413,69.9983,176.3604,274.4521,85.6248,-6.2858e-05,-8.43e-06,0.0,0 STARLINK-6069,1 56804U 23078AP  24144.49649433 -.00000843  00000-0 -62858-4 0  9990,2 56804  69.9983 176.3604 0003413 274.4521  85.6248 14.98320976 55701,6950.221,96.108,574.458,569.714,0.0
56804.0,STARLINK-6069,PAYLOAD,2024-05-24 03:56:17,14.98336402,0.0003398,69.9983,174.6766,274.2093,85.8677,-0.00023127,-2.852e-05,0.0,0 STARLINK-6069,1 56804U 23078AP  24145.16409212 -.00002852  00000-0 -23127-3 0  9991,2 56804  69.9983 174.6766 0003398 274.2093  85.8677 14.98336402 55399,6950.173,96.107,574.4,569.676,0.0
56804.0,STARLINK-6069,PAYLOAD,2024-05-24 11:56:57,14.98339961,0.00033,69.9983,173.8353,272.5883,87.4898,-0.00016463,-2.057e-05,0.0,0 STARLINK-6069,1 56804U 23078AP  24145.49788649 -.00002057  00000-0 -16463-3 0  9993,2 56804  69.9983 173.8353 0003300 272.5883  87.4898 14.98339961 55850,6950.162,96.106,574.321,569.734,0.0
56804.0,STARLINK-6069,PAYLOAD,2024-05-25 03:58:18,14.98323602,0.0003242,69.9983,172.1517,269.4877,90.591,0.00011089,1.23e-05,0.0,0 STARLINK-6069,1 56804U 23078AP  24146.16548880  .00001230  00000-0  11089-3 0  9998,2 56804  69.9983 172.1517 0003242 269.4877  90.5910 14.98323602 55548,6950.213,96.107,574.331,569.824,0.0
56804.0,STARLINK-6069,PAYLOAD,2024-05-25 11:58:58,14.98325869,0.0003206,69.9984,171.31,269.386,90.6932,0.00012564,1.406e-05,0.0,0 STARLINK-6069,1 56804U 23078AP  24146.49928801  .00001406  00000-0  12564-3 0  9993,2 56804  69.9984 171.3100 0003206 269.3860  90.6932 14.98325869 56003,6950.206,96.107,574.299,569.842,0.0
56804.0,STARLINK-6069,PAYLOAD,2024-05-26 04:00:19,14.98335035,0.0002872,69.9988,169.6266,263.6618,96.4214,-1.7416e-05,-3.01e-06,0.0,0 STARLINK-6069,1 56804U 23078AP  24147.16688714 -.00000301  00000-0 -17416-4 0  9991,2 56804  69.9988 169.6266 0002872 263.6618  96.4214 14.98335035 55693,6950.177,96.107,574.038,570.046,0.0
56804.0,STARLINK-6069,PAYLOAD,2024-05-26 10:24:51,14.98332619,0.0002895,69.9986,168.9533,264.9284,95.1545,1.6416e-05,1.03e-06,0.0,0 STARLINK-6069,1 56804U 23078AP  24147.43392708  .00000103  00000-0  16416-4 0  9993,2 56804  69.9986 168.9533 0002895 264.9284  95.1545 14.98332619 56147,6950.185,96.107,574.062,570.038,0.0
56804.0,STARLINK-6069,PAYLOAD,2024-05-26 18:25:32,14.9832706,0.0002353,70.0013,168.1162,247.061,113.0301,-5.5366e-05,-7.53e-06,0.0,0 STARLINK-6069,1 56804U 23078AP  24147.76773311 -.00000753  00000-0 -55366-4 0  9992,2 56804  70.0013 168.1162 0002353 247.0610 113.0301 14.98327060 55788,6950.202,96.107,573.702,570.432,0.0
